[{"OBJECT_NAME":"STARLINK-33897","OBJECT_ID":"2025-094B","EPOCH":"2026-03-09T21:31:28.309152","MEAN_MOTION":14.98333036,"ECCENTRICITY":0.00030947,"INCLINATION":70.0017,"RA_OF_ASC_NODE":233.9544,"ARG_OF_PERICENTER":270.6556,"MEAN_ANOMALY":89.4249,"EPHEMERIS_TYPE":0,"CLASSIFICATION_TYPE":"U","NORAD_CAT_ID":63865,"ELEMENT_SET_NO":999,"REV_AT_EPOCH":4745,"BSTAR":0.00019546056,"MEAN_MOTION_DOT":2.24e-5,"MEAN_MOTION_DDOT":0},{"OBJECT_NAME":"COSMOS 2151","OBJECT_ID":"1991-042A","EPOCH":"2026-03-09T21:12:10.736640","MEAN_MOTION":15.00104908,"ECCENTRICITY":0.00139956,"INCLINATION":82.493,"RA_OF_ASC_NODE":83.4892,"ARG_OF_PERICENTER":63.3058,"MEAN_ANOMALY":296.9597,"EPHEMERIS_TYPE":0,"CLASSIFICATION_TYPE":"U","NORAD_CAT_ID":21422,"ELEMENT_SET_NO":999,"REV_AT_EPOCH":86322,"BSTAR":0.00015116122,"MEAN_MOTION_DOT":1.915e-5,"MEAN_MOTION_DDOT":0}]
